{
  "type": "FeatureCollection",
  "name": "sample_points",
  "crs": {
    "type": "name",
    "properties": {"name": "urn:ogc:def:crs:OGC:1.3:CRS84"}
  },
  "features": [
    {
      "type": "Feature",
      "properties": {"id": 1, "name": "Boston Common"},
      "geometry": {"type": "Point", "coordinates": [-71.0589, 42.3601]}
    },
    {
      "type": "Feature",
      "properties": {"id": 2, "name": "Downtown Crossing"},
      "geometry": {"type": "Point", "coordinates": [-71.0567, 42.3612]}
    }
  ]
}

